#aV2008  3 17  0  0   .00000000      96 DD+AD WGS84 FIT  NGA
## 1471  86400.00000000   900.00000000 54542  .0000000000000
+   31     1  2  3  4  5  6  8  9 10 11 12 13 14 15 16 17 18
+         19 20 21 22 23 24 25 26 27 28 29 30 31 32  0  0  0
+          0  0  0  0  0  0  0  0  0  0  0  0  0  0  0  0  0
+          0  0  0  0  0  0  0  0  0  0  0  0  0  0  0  0  0
+          0  0  0  0  0  0  0  0  0  0  0  0  0  0  0  0  0
++         0  0  0  0  0  0  0  0  0  0  0  0  0  0  0  0  0
++         0  0  0  0  0  0  0  0  0  0  0  0  0  0  0  0  0
++         0  0  0  0  0  0  0  0  0  0  0  0  0  0  0  0  0
++         0  0  0  0  0  0  0  0  0  0  0  0  0  0  0  0  0
++         0  0  0  0  0  0  0  0  0  0  0  0  0  0  0  0  0
%c cc cc ccc ccc cccc cccc cccc cccc ccccc ccccc ccccc ccccc
%c cc cc ccc ccc cccc cccc cccc cccc ccccc ccccc ccccc ccccc
%f  0.0000000  0.000000000  0.00000000000  0.000000000000000
%f  0.0000000  0.000000000  0.00000000000  0.000000000000000
%i    0    0    0    0      0      0      0      0         0
%i    0    0    0    0      0      0      0      0         0
/*      NGA, ST. LOUIS,MO.                                  
/*   EPHEMERIS COMPUTED FROM  3 DAYS OF DATA                
/* CCCCCCCCCCCCCCCCCCCCCCCCCCCCCCCCCCCCCCCCCCCCCCCCCCCCCCCCC
/* CCCCCCCCCCCCCCCCCCCCCCCCCCCCCCCCCCCCCCCCCCCCCCCCCCCCCCCCC
*  2008  3 17  3  0   .00000000                                                 
P  1  17495.578429 -19298.902834   5202.814615    192.799861                    
V  1   5994.780805  -2702.781120 -31569.355090       .025796                    
P  2  -4613.735268  14798.084600  21387.231729    182.736575                    
V  2 -26519.595359  -7808.051111   -650.422758       .031231                    
P  3   6993.418250 -22426.096290 -12302.857194    201.330361                    
V  3  12598.159782  -9558.726196  25446.127241       .051922                    
P  4 -17366.510076   8525.728670  18254.989929    -27.652284                    
V  4 -21806.760156  -8372.452724 -16384.886132      -.072477                    
P  5  15643.718625  17104.333323  12831.219202    723.806067                    
V  5   2790.828210  16693.663487 -24996.963016       .115906                    
P  6  21537.734273 -13250.299336   8409.289026     66.502150                    
V  6  -4927.615435   9798.034088  28614.366624       .149446                    
P  8 -23344.622911   1074.579160 -13138.561346   -145.182140                    
V  8 -14945.064287  -6720.870521  25722.963105      -.015687                    
P  9  17511.667733  14627.281447 -14356.136626    115.472188                    
V  9 -16967.181559  -2648.800773 -24299.593309       .017898                    
P 10    443.202922  25391.118358   7030.641338   -310.308158                    
V 10  -4712.333824  -8384.579856  30334.507201      -.500643                    
P 11 -20809.857409 -11830.121619 -11987.497687     26.814904                    
V 11  15370.034706  -2241.552901 -24453.954901      -.000926                    
P 12  12298.875779  21380.980559  10056.724734   -358.161607                    
V 12    648.464418  12802.094123 -28193.156727      -.004524                    
P 13 -19358.860203   1352.766903  18009.338682    245.763018                    
V 13  16698.570438 -15890.033990  19054.456866       .019884                    
P 14  21421.636019 -14718.302505  -5131.367277   -287.131707                    
V 14  -3643.081915   5882.896882 -31556.962088       .038611                    
P 15    795.692658  18173.954041 -19325.774401    -86.187484                    
V 15 -18578.932079  16185.855029  14440.406669      -.040620                    
P 16   2898.145141 -23700.540019  11501.606031    131.312155                    
V 16   5500.247657  13685.585651  27176.486987      -.009953                    
P 17 -21392.134239  14566.556062  -5561.347596     40.991816                    
V 17   3259.796049  -6969.350917 -30779.625119      -.004768                    
P 18  16011.456798   5715.031590 -20316.193782   -195.764064                    
V 18   4262.738717  25805.123728  10182.599859       .033167                    
P 19   -376.211209 -17666.743985 -19690.786506     24.423704                    
V 19  20292.934054 -15085.597490  13259.197327       .012247                    
P 20 -13608.067749 -19641.105404  11530.462073    118.469559                    
V 20  -1066.450310 -15038.196577 -26556.575712      -.008147                    
P 21  25985.573745   4583.655448  -4977.869017     69.380799                    
V 21   5202.323252   4838.154313  29982.474483      -.009320                    
P 22  12992.359466 -10516.936464 -20479.856366    209.717166                    
V 22   6040.016167  25730.788869  -9354.491276       .004844                    
P 23 -10495.655960 -10647.351654  21887.273086    341.424570                    
V 23  20345.084763 -19116.428568    228.243363       .025963                    
P 24  21742.278853  13176.261074   7330.676185     78.737425                    
V 24  -9670.661254   -137.523242  29893.005974       .030526                    
P 25 -24314.989092  -8875.295079   5860.537858    533.122795                    
V 25   7404.257946  -1345.488280  30766.041768       .104685                    
P 26  -2885.377333  18750.072430 -18810.106260    209.342802                    
V 26 -18135.009579  14269.648871  17985.894659       .092333                    
P 27 -26107.714076  -4444.032354  -2226.161560    174.843375                    
V 27  -2977.097738  -3250.527579  31655.638592       .026948                    
P 28 -13470.960588   7521.197617 -21203.110390    -16.574942                    
V 28  -6459.159073 -27104.689901  -5748.023466      -.004590                    
P 29  17793.028234   2397.259527  19682.376052    -49.005607                    
V 29 -17445.617736  17595.851134  13735.013067       .029309                    
P 30  16219.822903  11269.685844  17473.483984     68.002750                    
V 30   4384.905442  22503.076380 -18137.914517       .015421                    
P 31  15104.462179  -9814.691585  19763.074910    -13.025345                    
V 31  23316.357887   7884.512180 -13952.915564      -.014214                    
P 32   4900.490149 -22975.666102 -12142.791214    251.254399                    
V 32   4490.746883  15513.061355 -26434.741423       .078206                    
EOF
